{
  "norad_id": 62636,
  "name": "FLOCK 4G-20",
  "history": [
    {
      "epoch": "2026-03-28T18:41:33.200736Z",
      "apogee_km": 448.93889316150944,
      "perigee_km": 444.47421700464474,
      "latitude_deg": 7.873287534599064e-05,
      "longitude_deg": 64.08074157620256,
      "height_km": 451.3700294834909,
      "semi_major_axis_km": 6824.843555083076,
      "eccentricity": 0.00032709,
      "inclination_deg": 97.3921,
      "raan_deg": 170.6635,
      "arg_perigee_deg": 226.293,
      "mean_anomaly_deg": 133.8046,
      "mean_motion_rev_day": 15.39797858
    },
    {
      "epoch": "2026-03-29T04:03:00.937440Z",
      "apogee_km": 448.6861167316156,
      "perigee_km": 444.22283390675784,
      "latitude_deg": 2.4153904211506316e-05,
      "longitude_deg": -76.2758282563987,
      "height_km": 451.1740898367571,
      "semi_major_axis_km": 6824.591475319186,
      "eccentricity": 0.000327,
      "inclination_deg": 97.3921,
      "raan_deg": 171.0568,
      "arg_perigee_deg": 224.248,
      "mean_anomaly_deg": 135.8505,
      "mean_motion_rev_day": 15.39883172
    },
    {
      "epoch": "2026-03-30T05:00:06.647328Z",
      "apogee_km": 448.1209165438486,
      "perigee_km": 443.6022011781424,
      "latitude_deg": 1.0761296993973776e-05,
      "longitude_deg": -90.52424229359136,
      "height_km": 450.66403018301645,
      "semi_major_axis_km": 6823.998558860995,
      "eccentricity": 0.00033109,
      "inclination_deg": 97.3922,
      "raan_deg": 172.1069,
      "arg_perigee_deg": 221.9164,
      "mean_anomaly_deg": 138.1829,
      "mean_motion_rev_day": 15.4008387
    },
    {
      "epoch": "2026-03-30T17:28:35.143392Z",
      "apogee_km": 447.8153585826567,
      "perigee_km": 443.3312256013123,
      "latitude_deg": -1.6721598547999457e-06,
      "longitude_deg": 82.37021342292302,
      "height_km": 450.3199382879273,
      "semi_major_axis_km": 6823.710292091984,
      "eccentricity": 0.00032857,
      "inclination_deg": 97.3921,
      "raan_deg": 172.6324,
      "arg_perigee_deg": 223.5413,
      "mean_anomaly_deg": 136.5574,
      "mean_motion_rev_day": 15.40181462
    },
    {
      "epoch": "2026-03-31T12:11:12.456384Z",
      "apogee_km": 447.42789991263453,
      "perigee_km": 442.89109007311436,
      "latitude_deg": 8.015892888138437e-05,
      "longitude_deg": 161.7341257172814,
      "height_km": 449.9754756838613,
      "semi_major_axis_km": 6823.296494992875,
      "eccentricity": 0.00033245,
      "inclination_deg": 97.3922,
      "raan_deg": 173.4202,
      "arg_perigee_deg": 221.6715,
      "mean_anomaly_deg": 138.4279,
      "mean_motion_rev_day": 15.4032157
    },
    {
      "epoch": "2026-04-01T05:20:11.503968Z",
      "apogee_km": 447.1726868093365,
      "perigee_km": 442.4280161751085,
      "latitude_deg": -2.3001067708032706e-06,
      "longitude_deg": -95.49410888654305,
      "height_km": 449.75208108124514,
      "semi_major_axis_km": 6822.937351492222,
      "eccentricity": 0.0003477,
      "inclination_deg": 97.3919,
      "raan_deg": 174.1423,
      "arg_perigee_deg": 219.5224,
      "mean_anomaly_deg": 140.5769,
      "mean_motion_rev_day": 15.4044319
    }
  ]
}